GLOBALSTAR M067         
1 32263U 07048A   25178.02575480 -.00000073  00000+0  18231-3 0  9997
2 32263  51.9746   7.1437 0001413  42.6029 130.7950 12.40674164810700
GLOBALSTAR M070         
1 32264U 07048B   25178.53211961 -.00000104  00000+0  14619-5 0  9998
2 32264  51.9749  96.9874 0000614  65.4786 106.1249 12.62319334814970
GLOBALSTAR M066         
1 32265U 07048C   25178.45387417 -.00000088  00000+0  52806-4 0  9990
2 32265  51.9707 356.1519 0002777 345.6789  33.9737 12.29878636816564
GLOBALSTAR M068         
1 32266U 07048D   25178.50912554 -.00000116  00000+0 -68466-4 0  9995
2 32266  51.9890 270.7934 0001515 149.8875 224.1296 12.62824651818863
GLOBALSTAR M079         
1 37188U 10054A   25178.57417053 -.00000110  00000+0 -36613-4 0  9998
2 37188  52.0035 108.1651 0000610  13.0373 158.4934 12.62265118677761
GLOBALSTAR M074         
1 37189U 10054B   25178.52177228 -.00000107  00000+0 -17770-4 0  9990
2 37189  52.0014 107.6473 0000697  40.7662 131.0006 12.62256929678362
GLOBALSTAR M076         
1 37190U 10054C   25178.54773660 -.00000103  00000+0  66558-5 0  9990
2 37190  52.0025 107.7385 0000754  29.0539 141.6572 12.62263346678081
GLOBALSTAR M077         
1 37191U 10054D   25178.45840245 -.00000084  00000+0  11002-3 0  9995
2 37191  52.0081  64.8706 0000779  61.4219 123.2845 12.62268600678443
